line1,line2,validFromUtcTime
1 00000U 00000E   26001.00000000  .00000000  00000-0  27772-4 0    01,2 00000  89.0018   0.3303 0009854 270.8348 164.3099 13.55238580    07,2026-01-01T00:00:00Z
1 00000U 00000E   26002.00000000  .00000000  00000-0  27772-4 0    02,2 00000  89.0018   0.2288 0009854 267.9241   3.1672 13.55238618    06,2026-01-02T00:00:00Z
